XRISM                   
1 57800U 23137A   26068.97080784  .00006442  00000+0  36527-3 0  9992
2 57800  31.0015 281.8459 0008010  41.4505 318.6740 15.11505971137833
ACS3                    
1 59588U 24077B   26068.85800629  .00024147  00000+0  19402-1 0  9999
2 59588  97.2069   9.9320 0059818  76.3572 284.4244 13.89619668 94226
SZ-21 MODULE            
1 66515U 25246C   26067.73638915  .00047754  00000+0  41113-3 0  9994
2 66515  41.4736 209.2286 0001365 296.9264  63.1439 15.68463397 17929
